[{"OBJECT_NAME":"STARLINK-4171","OBJECT_ID":"2022-062BA","EPOCH":"2026-03-09T06:49:48.382464","MEAN_MOTION":15.08833668,"ECCENTRICITY":0.00012161,"INCLINATION":53.2186,"RA_OF_ASC_NODE":15.9371,"ARG_OF_PERICENTER":85.8446,"MEAN_ANOMALY":274.2685,"EPHEMERIS_TYPE":0,"CLASSIFICATION_TYPE":"U","NORAD_CAT_ID":52878,"ELEMENT_SET_NO":999,"REV_AT_EPOCH":20600,"BSTAR":6.2681319e-5,"MEAN_MOTION_DOT":7.1e-6,"MEAN_MOTION_DDOT":0},{"OBJECT_NAME":"IRIDIUM 33 DEB","OBJECT_ID":"1997-051UN","EPOCH":"2026-03-08T06:46:46.443072","MEAN_MOTION":15.09674475,"ECCENTRICITY":0.00152582,"INCLINATION":86.3393,"RA_OF_ASC_NODE":271.884,"ARG_OF_PERICENTER":69.7211,"MEAN_ANOMALY":290.5665,"EPHEMERIS_TYPE":0,"CLASSIFICATION_TYPE":"U","NORAD_CAT_ID":35929,"ELEMENT_SET_NO":999,"REV_AT_EPOCH":89067,"BSTAR":0.003863549,"MEAN_MOTION_DOT":0.00062834,"MEAN_MOTION_DDOT":0}]
